#aV2009  6 10  0  0   .00000000      96 DD+AD WGS84 FIT  NGA
## 1535 259200.00000000   900.00000000 54992  .0000000000000
+   31     1  2  3  4  6  7  8  9 10 11 12 13 14 15 16 17 18
+         19 20 21 22 23 24 25 26 27 28 29 30 31 32  0  0  0
+          0  0  0  0  0  0  0  0  0  0  0  0  0  0  0  0  0
+          0  0  0  0  0  0  0  0  0  0  0  0  0  0  0  0  0
+          0  0  0  0  0  0  0  0  0  0  0  0  0  0  0  0  0
++         0  0  0  0  0  0  0  0  0  0  0  0  0  0  0  0  0
++         0  0  0  0  0  0  0  0  0  0  0  0  0  0  0  0  0
++         0  0  0  0  0  0  0  0  0  0  0  0  0  0  0  0  0
++         0  0  0  0  0  0  0  0  0  0  0  0  0  0  0  0  0
++         0  0  0  0  0  0  0  0  0  0  0  0  0  0  0  0  0
%c cc cc ccc ccc cccc cccc cccc cccc ccccc ccccc ccccc ccccc
%c cc cc ccc ccc cccc cccc cccc cccc ccccc ccccc ccccc ccccc
%f  0.0000000  0.000000000  0.00000000000  0.000000000000000
%f  0.0000000  0.000000000  0.00000000000  0.000000000000000
%i    0    0    0    0      0      0      0      0         0
%i    0    0    0    0      0      0      0      0         0
/*      NGA, ST. LOUIS,MO.                                  
/*   EPHEMERIS COMPUTED FROM  3 DAYS OF DATA                
/* CCCCCCCCCCCCCCCCCCCCCCCCCCCCCCCCCCCCCCCCCCCCCCCCCCCCCCCCC
/* CCCCCCCCCCCCCCCCCCCCCCCCCCCCCCCCCCCCCCCCCCCCCCCCCCCCCCCCC
*  2009  6 10  6 45   .00000000                                                 
P  1 -15377.609287   1510.752096  21506.079510    -79.934610                    
V  1   3414.275912 -27316.179552   4443.283738       .059708                    
P  2  -7783.041368 -20268.372304  15482.157263    155.985709                    
V  2  16907.365326  10354.853656  21513.991215       .010234                    
P  3   4804.402188  15561.859772 -21260.675956    404.684616                    
V  3 -23626.748781  11928.008418   3801.117538       .052429                    
P  4   5120.963091 -15392.144398  20843.448129   -126.723208                    
V  4  21575.219335  16112.426737   6919.178600      -.158242                    
P  6  -1435.437773  17003.983035 -20145.986749    155.646834                    
V  6 -24332.970624   9603.051568   9809.124732       .135347                    
P  7  20998.200109   2461.137021 -16175.512171     17.338503                    
V  7  14953.807062  14022.963051  21453.796921      -.006817                    
P  8  12583.014269  -8162.832817 -22015.646969   -207.091502                    
V  8  20566.982408  18557.011038   4397.607563      -.015847                    
P  9 -21478.998032 -15673.314621    289.791776     60.394425                    
V  9    412.121363  -2509.672199 -32044.927920       .020393                    
P 10  -2605.409499 -24511.036976  -9598.102857    -17.311213                    
V 10   4836.141887 -11411.815149  28637.994321      -.005364                    
P 11  24265.776442  11215.719589    795.486829     -5.902309                    
V 11   -966.939383   4792.380840 -29847.763935      -.015076                    
P 12 -12786.558668 -10796.806790  20721.027982   -268.617203                    
V 12   4740.145359 -25683.922444 -10370.688168       .057347                    
P 13  25611.161505  -5651.752794   4075.604812    299.100428                    
V 13  -4518.722820   3299.123417  31934.656521       .008170                    
P 14 -18753.263383  14741.547994  11669.833303    -97.138064                    
V 14 -14377.460337   3237.858920 -27586.202256       .058193                    
P 15 -11893.783643 -11113.417811 -20976.880202   -299.653639                    
V 15  24398.554575 -10842.188780  -8019.848421      -.032632                    
P 16  -1287.707764  25994.154174  -4536.755016     43.331104                    
V 16  -3674.326963   5325.643569  31393.250497      -.034217                    
P 17  19387.398294 -14907.239080  10191.189504     63.631920                    
V 17  13018.527277  -2037.846953 -28127.878069       .021026                    
P 18 -15491.303645  10543.171850 -18447.877090    -49.487993                    
V 18   2288.777181 -24062.006614 -15857.961683       .032343                    
P 19  13781.028374  10541.850464 -20114.112453     22.993277                    
V 19 -24163.491474   8589.604490 -11763.899990      -.012323                    
P 20  14078.101164   8649.227683  20675.022121     80.323887                    
V 20  -4128.388985  26295.768908  -8101.304987      -.010039                    
P 21 -19969.117581    350.535723 -17536.075543      9.208740                    
V 21 -16340.156566 -15782.895827  17390.775584      -.021321                    
P 22 -11925.640099  20971.492416 -10866.343643    197.878235                    
V 22   -486.159113 -14426.022892 -26992.695377      -.009761                    
P 23  21941.728912   2441.387911  14923.362163    390.206576                    
V 23 -17012.244095   8411.225491  23275.723108       .000402                    
P 24 -22202.086557 -11455.702139  -8495.295346    195.644776                    
V 24  -6238.075849  -9651.480281  29122.729389       .029857                    
P 25  23396.414021   7418.906247  -9554.373793    455.396353                    
V 25   9251.645968   9020.665231  28827.688503       .182156                    
P 26 -23776.631993   -975.513237 -12901.044680     63.337492                    
V 26  14159.247509  -5707.087232 -26322.360030       .008015                    
P 27 -19221.978082 -17486.929408  -4757.236082     56.241842                    
V 27   7048.898311   1981.192385 -31307.107633       .032264                    
P 28  12469.925826 -19102.117462 -12900.486655    -25.371138                    
V 28   -623.605896  17362.593345 -25773.165096      -.002561                    
P 29 -25392.808731   4578.483815   6315.050949     28.691345                    
V 29   6463.118557  -5301.603117  30386.642545       .037656                    
P 30 -15360.216899   1713.470267  21223.752317    152.631023                    
V 30   2456.316279 -27757.957890   4032.460603       .028165                    
P 31  -2477.803933  16283.389837  21011.037018    -62.033131                    
V 31 -21028.812257 -15655.805202   9886.255200      -.006530                    
P 32   8771.106234  17771.738621  18197.731809    249.301430                    
V 32  -6362.110269  21322.206311 -17901.784282      -.055539                    
EOF
